OBJECT_NAME,OBJECT_ID,EPOCH,MEAN_MOTION,ECCENTRICITY,INCLINATION,RA_OF_ASC_NODE,ARG_OF_PERICENTER,MEAN_ANOMALY,EPHEMERIS_TYPE,CLASSIFICATION_TYPE,NORAD_CAT_ID,ELEMENT_SET_NO,REV_AT_EPOCH,BSTAR,MEAN_MOTION_DOT,MEAN_MOTION_DDOT
LEMUR-2-ALISIA,2025-009DB,2026-07-05T04:17:29.394816,15.03062515,.00032938,97.6947,268.2261,161.8369,198.2974,0,U,62706,999,10286,.11617881E-2,.15623E-3,0
LEMUR-2-ROUNDTRIPPER,2025-009DG,2026-07-05T04:35:02.836320,15.04109103,.0004579,97.7221,268.8463,87.8506,272.3244,0,U,62711,999,8033,.12173763E-2,.1684E-3,0
LEMUR-2-MYNAMEISJEFF,2025-009DH,2026-07-05T04:32:47.286816,15.04101211,.00036231,97.7271,269.2366,121.7558,238.4021,0,U,62712,999,8033,.11984712E-2,.16572E-3,0
LEMUR-2-LEIA-PHILIP,2025-052AN,2026-07-05T04:18:51.065280,14.97370481,.00046744,97.6815,77.8260,146.3902,213.7618,0,U,63246,999,7136,.23372075E-3,.2658E-4,0
LEMUR-2-LIA-MARTIN,2025-052AQ,2026-07-05T04:16:56.726112,14.97963907,.00050058,97.6859,78.3261,115.6162,244.5578,0,U,63248,999,7137,.76893065E-3,.9021E-4,0
LEMUR-2-DELOITTE-1,2025-052BB,2026-07-05T03:46:28.229088,14.97733851,.00023033,97.6886,78.6371,65.5807,294.5656,0,U,63259,999,7138,.56264093E-3,.6543E-4,0
LEMUR-2-EMERSONROSE,2025-052BD,2026-07-04T15:32:29.004288,14.99220237,.00026114,97.6866,78.7251,75.3516,284.7996,0,U,63261,999,7135,.59296517E-3,.7171E-4,0
LEMUR-2-MARACHE-FRAN,2025-052BE,2026-07-04T22:39:49.527936,15.00265967,.00043653,97.6877,79.3717,301.4410,58.6386,0,U,63262,999,7142,.69055897E-3,.8595E-4,0
LEMUR-2-THEFALCONER,2025-052BG,2026-07-03T23:36:20.471328,14.97503207,.0001079,97.6840,77.0825,27.2576,332.8702,0,U,63264,999,7120,.46822E-3,.5402E-4,0
LEMUR-2-UNTITLED-SC,2025-061A,2026-07-05T00:07:29.630784,15.13600053,.00181139,97.5650,161.2388,198.3571,161.7008,0,U,63351,999,7028,.31952263E-3,.5692E-4,0
LEMUR-2-ESPERANZA,2025-061B,2026-07-05T05:53:46.369248,15.13702155,.00177635,97.5655,161.5748,196.4356,163.6302,0,U,63352,999,7032,.38548276E-3,.6901E-4,0
LEMUR-2-KREMPEL-BRO2,2025-061C,2026-07-05T00:04:27.268032,15.14131233,.00188797,97.5704,161.8905,190.0662,170.0194,0,U,63353,999,7030,.31318318E-3,.5664E-4,0
LEMUR-2-THERMORAPTOR,2025-061D,2026-07-05T04:22:44.230368,15.14215337,.00186603,97.5707,162.1478,188.0810,172.0124,0,U,63354,999,7033,.28185063E-3,.5102E-4,0
LEMUR-2-NEUROSPICY,2025-061E,2026-07-04T21:19:21.380160,15.14329215,.00163835,97.5633,161.4679,192.3209,167.7625,0,U,63355,999,7029,.32991495E-3,.5998E-4,0
LEMUR-2-TILLINFINITY,2025-061F,2026-07-05T04:20:46.156128,15.14916489,.00180064,97.5620,162.0619,179.3699,180.7559,0,U,63356,999,7036,.27836539E-3,.5138E-4,0
LEMUR-2-KREMPEL-BRO1,2025-061G,2026-07-04T21:25:22.681632,15.14720504,.00185738,97.5621,161.6860,182.0507,178.0652,0,U,63357,999,7031,.32376654E-3,.5956E-4,0
LEMUR-2-LANGER2SPACE,2025-061H,2026-07-04T23:43:47.692416,15.14416285,.00163294,97.5628,161.5885,189.9761,170.1149,0,U,63358,999,7031,.28903675E-3,.5259E-4,0
LEMUR-2-BALTO,2025-052BH,2026-07-04T15:53:31.838784,15.00290454,.00059058,97.6925,79.0708,8.0852,352.0466,0,U,63395,999,7138,.83081624E-3,.10364E-3,0
LEMUR-2-KRISH,2025-135AK,2026-07-04T14:17:13.670304,14.96375761,.00015743,97.7757,300.3533,105.0164,255.1231,0,U,64561,999,5652,.8739787E-3,.9848E-4,0
LEMUR-2-HUBBLE-4,2025-135AP,2026-07-05T00:36:54.791424,14.93666001,.00017433,97.7713,299.7220,192.8987,167.2189,0,U,64565,999,5653,.17822172E-3,.1827E-4,0
LEMUR-2-SEJONG-2,2025-135BL,2026-07-05T06:54:53.898912,14.96863025,.00029447,97.7715,301.1878,263.4009,96.6877,0,U,64586,999,5665,.53964723E-3,.6132E-4,0
LEMUR-2-HUBBLE-5,2025-135BT,2026-07-04T07:14:02.636160,14.94188176,.00040968,97.7732,299.6635,284.2668,75.8097,0,U,64840,999,5646,.14065879E-3,.1449E-4,0
LEMUR-2-KARENDARRELL,2025-135BU,2026-07-04T06:13:46.972416,15.00374837,.00113085,97.7700,301.4418,140.0466,220.1592,0,U,64841,999,5657,.87289329E-3,.10926E-3,0
LEMUR-2-LUCILLE-ROSE,2025-135BV,2026-07-04T23:11:53.816640,15.00398001,.00135581,97.7728,302.1821,220.7939,139.2270,0,U,65403,999,5130,.10632546E-2,.13342E-3,0
LEMUR-2-AFFIE-WAUWIE,2025-248C,2026-07-04T20:15:45.055008,15.27933670,.00082996,45.3925,19.2757,197.3021,162.7586,0,U,66295,999,3729,.15036177E-2,.41727E-3,0
LEMUR-2-DEANANDMAEVE,2025-276N,2026-07-05T03:45:55.909440,15.19969748,.00043137,97.4199,259.3362,301.8123,58.2692,0,U,66678,999,3314,.55356844E-3,.11857E-3,0
LEMUR-2-STAS-GORBUK,2025-276W,2026-07-05T04:13:03.817632,15.19585314,.00035187,97.4234,259.4079,300.0952,59.9934,0,U,66686,999,3314,.46265882E-3,.9785E-4,0
LEMUR-2-TEODOR,2025-276DG,2026-07-05T03:21:16.536672,15.21260583,.00023498,97.4141,259.6316,98.2371,261.9131,0,U,66768,999,3317,.461705E-3,.10254E-3,0
LEMUR-2-LAILA,2025-276DQ,2026-07-05T04:14:38.196672,15.21485303,.00028702,97.4164,259.8002,109.5812,250.5734,0,U,66776,999,3318,.43761844E-3,.9779E-4,0
